PERSEUS-M1              
1 40039U 14033AF  26140.60520355  .00001056  00000+0  10062-3 0  9999
2 40039  97.9635  84.2891 0012593  35.6412 324.5647 14.95529052646515
POLYITAN-1              
1 40042U 14033AJ  26141.02461890  .00012318  00000+0  39853-3 0  9990
2 40042  98.0963 164.7374 0005861 230.4660 129.6062 15.32211111649430
TIGRISAT                
1 40043U 14033AK  26140.96290013  .00001379  00000+0  16441-3 0  9993
2 40043  97.7801 291.6064 0049919 162.4568 197.8386 14.85029761641586
AEROCUBE 6A             
1 40045U 14033AM  26140.96968980  .00003362  00000+0  28689-3 0  9991
2 40045  97.7226 308.2191 0039987 106.0681 254.4950 14.97770858642546
AEROCUBE 6B             
1 40046U 14033AN  26141.19858742  .00004553  00000+0  37296-3 0  9999
2 40046  97.7184 308.1780 0038768  98.5412 262.0207 14.99198163642710
CANX-4                  
1 40055U 14034C   26141.13117201  .00000542  00000+0  76875-4 0  9993
2 40055  98.3155  15.4472 0014140  97.2952 262.9867 14.81207409640527
CANX-5                  
1 40056U 14034D   26141.19747004  .00000574  00000+0  80996-4 0  9994
2 40056  98.3158  15.5579 0014130  97.2754 263.0064 14.81224737631343
UKUBE-1                 
1 40074U 14037F   26141.25698735  .00005587  00000+0  32031-3 0  9995
2 40074  98.4247 141.7112 0000610 138.0527 222.0748 15.13061336644481
BRITE-PL2 (HEWELIUSZ)   
1 40119U 14049B   26141.25779093  .00001630  00000+0  15638-3 0  9994
2 40119  97.9070 253.0569 0013770 193.1366 166.9497 14.94478045637426
AEROCUBE 5C             
1 40965U 15058B   26141.28123168  .00002157  00000+0  19907-3 0  9991
2 40965  64.7681 346.2838 0129983  73.8575 287.6800 14.91284888361643
AEROCUBE 7              
1 40966U 15058C   26140.81895860  .00002892  00000+0  23987-3 0  9994
2 40966  64.7630 330.5249 0119730  72.6870 288.7301 14.95493189361866
FOX-1A (AO-85)          
1 40967U 15058D   26141.05170779  .00002136  00000+0  20016-3 0  9998
2 40967  64.7762   3.3023 0129286  67.2463 294.2251 14.90792762109526
SINOD-D 1               
1 40968U 15058E   26140.59958438  .00002883  00000+0  23905-3 0  9992
2 40968  64.7759 345.2919 0117782  64.1616 297.1590 14.95670429112532
SNAP-3 ALICE            
1 40970U 15058G   26141.26151814  .00059684  00000+0  88130-3 0  9995
2 40970  64.7512 196.5724 0033473  25.6500 334.6295 15.54338270112698
LMRST-SAT               
1 40971U 15058H   26141.06725590  .00002160  00000+0  20333-3 0  9990
2 40971  64.7768 359.5410 0131036  69.2535 292.2562 14.90418644109517
SNAP-3 EDDIE            
1 40972U 15058J   26141.27220034  .00056910  00000+0  80546-3 0  9991
2 40972  64.7430 187.4540 0033834  29.4367 330.8673 15.55487068114835
PROPCUBE 3              
1 40973U 15058K   26140.56671417  .00002468  00000+0  21315-3 0  9996
2 40973  64.7691 338.8200 0123137  70.9347 290.5055 14.94051580110677
BISONSAT                
1 40974U 15058L   26141.05066708  .00007498  00000+0  37356-3 0  9993
2 40974  64.7600 261.3343 0078499  58.7051 302.1729 15.15589412111507
SNAP-3 JIMI             
1 40975U 15058M   26140.89341470  .00004082  00000+0  28838-3 0  9998
2 40975  64.7655 306.1084 0105159  66.7043 294.5100 15.01994577110123
PROPCUBE 1 (FLORA)      
1 40976U 15058N   26141.06439915  .00001982  00000+0  19514-3 0  9998
2 40976  64.7759  19.2869 0129835  71.5451 289.9722 14.89049298112223
SINOD-D 3               
1 40977U 15058P   26140.99538712  .00002819  00000+0  24570-3 0  9993
2 40977  64.7734   0.7174 0118313  69.0093 292.3631 14.93785978110697
HORYU-4                 
1 41340U 16012D   26141.08366275  .00148317  00000+0  73900-3 0  9998
2 41340  30.9882 275.5299 0004153  92.5419 267.5714 15.80334441566503
RAVAN                   
1 41849U 16067B   26141.24467737  .00033473  00000+0  55713-3 0  9993
2 41849  97.9920  27.7600 0007125  98.1338 262.0721 15.51947961523517
CELTEE 1                
1 41850U 16067C   26141.14237118  .00003312  00000+0  16026-3 0  9995
2 41850  98.0705   5.8660 0001390  55.8490 304.2874 15.19380960521770
OPTICUBE 04             
1 41851U 16067D   26141.30034673  .00001222  00000+0  80505-4 0  9997
2 41851  98.0725 352.1800 0015001 204.0271 156.0259 15.09529829521112
AEROCUBE 8D             
1 41852U 16067E   26141.17340854  .00005235  00000+0  21969-3 0  9990
2 41852  98.0712   9.2935 0002514 204.0257 156.0861 15.23971349521952
AEROCUBE 8C             
1 41853U 16067F   26141.20272165  .00004964  00000+0  20692-3 0  9994
2 41853  98.0585   6.5880 0006188 141.8657 218.3018 15.24211253521951
CORVUS BC2              
1 42846U 17042X   26141.02322372  .00001545  00000+0  10962-3 0  9998
2 42846  97.4041 303.4376 0012631 198.3091 161.7684 15.06095262482970
CORVUS BC1              
1 42847U 17042Y   26141.02092230  .00001730  00000+0  12173-3 0  9998
2 42847  97.4072 304.2315 0012093 174.4285 185.7080 15.06265921483001
MAKERSAT 0              
1 43016U 17073D   26141.13093424  .00017330  00000+0  48303-3 0  9996
2 43016  97.4655  23.4574 0110118  10.4350 349.9139 15.30862288462320
