OBJECT_NAME,OBJECT_ID,EPOCH,MEAN_MOTION,ECCENTRICITY,INCLINATION,RA_OF_ASC_NODE,ARG_OF_PERICENTER,MEAN_ANOMALY,EPHEMERIS_TYPE,CLASSIFICATION_TYPE,NORAD_CAT_ID,ELEMENT_SET_NO,REV_AT_EPOCH,BSTAR,MEAN_MOTION_DOT,MEAN_MOTION_DDOT
PERSEUS-M1,2014-033AF,2026-05-20T14:31:29.586720,14.95529052,.00125938,97.9635,84.2891,35.6412,324.5647,0,U,40039,999,64651,.10062219E-3,.1056E-4,0
POLYITAN-1,2014-033AJ,2026-05-21T00:35:27.072960,15.32211111,.00058612,98.0963,164.7374,230.4660,129.6062,0,U,40042,999,64943,.39852755E-3,.12318E-3,0
TIGRISAT,2014-033AK,2026-05-20T23:06:34.571232,14.85029761,.00499192,97.7801,291.6064,162.4568,197.8386,0,U,40043,999,64158,.16440674E-3,.1379E-4,0
AEROCUBE 6A,2014-033AM,2026-05-20T23:16:21.198720,14.97770858,.00399879,97.7226,308.2191,106.0681,254.4950,0,U,40045,999,64254,.28688588E-3,.3362E-4,0
AEROCUBE 6B,2014-033AN,2026-05-21T04:45:57.953088,14.99198163,.00387689,97.7184,308.1780,98.5412,262.0207,0,U,40046,999,64271,.3729595E-3,.4553E-4,0
CANX-4,2014-034C,2026-05-21T03:08:53.261664,14.81207409,.00141407,98.3155,15.4472,97.2952,262.9867,0,U,40055,999,64052,.76874747E-4,.542E-5,0
CANX-5,2014-034D,2026-05-21T04:44:21.411456,14.81224737,.00141305,98.3158,15.5579,97.2754,263.0064,0,U,40056,999,63134,.80995952E-4,.574E-5,0
UKUBE-1,2014-037F,2026-05-21T06:10:03.707040,15.13061336,.00006102,98.4247,141.7112,138.0527,222.0748,0,U,40074,999,64448,.32030693E-3,.5587E-4,0
BRITE-PL2 (HEWELIUSZ),2014-049B,2026-05-21T06:11:13.136352,14.94478045,.00137701,97.9070,253.0569,193.1366,166.9497,0,U,40119,999,63742,.15637758E-3,.163E-4,0
AEROCUBE 5C,2015-058B,2026-05-21T06:44:58.417152,14.91284888,.01299832,64.7681,346.2838,73.8575,287.6800,0,U,40965,999,36164,.19907338E-3,.2157E-4,0
AEROCUBE 7,2015-058C,2026-05-20T19:39:18.023040,14.95493189,.01197307,64.7630,330.5249,72.6870,288.7301,0,U,40966,999,36186,.23986743E-3,.2892E-4,0
FOX-1A (AO-85),2015-058D,2026-05-21T01:14:27.553056,14.90792762,.01292861,64.7762,3.3023,67.2463,294.2251,0,U,40967,999,10952,.20016129E-3,.2136E-4,0
SINOD-D 1,2015-058E,2026-05-20T14:23:24.090432,14.95670429,.01177822,64.7759,345.2919,64.1616,297.1590,0,U,40968,999,11253,.23905025E-3,.2883E-4,0
SNAP-3 ALICE,2015-058G,2026-05-21T06:16:35.167296,15.54338270,.00334736,64.7512,196.5724,25.6500,334.6295,0,U,40970,999,11269,.88130095E-3,.59684E-3,0
LMRST-SAT,2015-058H,2026-05-21T01:36:50.909760,14.90418644,.01310361,64.7768,359.5410,69.2535,292.2562,0,U,40971,999,10951,.2033275E-3,.216E-4,0
SNAP-3 EDDIE,2015-058J,2026-05-21T06:31:58.109376,15.55487068,.0033834,64.7430,187.4540,29.4367,330.8673,0,U,40972,999,11483,.80546012E-3,.5691E-3,0
PROPCUBE 3,2015-058K,2026-05-20T13:36:04.104288,14.94051580,.01231375,64.7691,338.8200,70.9347,290.5055,0,U,40973,999,11067,.21314774E-3,.2468E-4,0
BISONSAT,2015-058L,2026-05-21T01:12:57.635712,15.15589412,.0078499,64.7600,261.3343,58.7051,302.1729,0,U,40974,999,11150,.37356002E-3,.7498E-4,0
SNAP-3 JIMI,2015-058M,2026-05-20T21:26:31.030080,15.01994577,.0105159,64.7655,306.1084,66.7043,294.5100,0,U,40975,999,11012,.28837956E-3,.4082E-4,0
PROPCUBE 1 (FLORA),2015-058N,2026-05-21T01:32:44.086560,14.89049298,.01298353,64.7759,19.2869,71.5451,289.9722,0,U,40976,999,11222,.19514234E-3,.1982E-4,0
SINOD-D 3,2015-058P,2026-05-20T23:53:21.447168,14.93785978,.01183137,64.7734,0.7174,69.0093,292.3631,0,U,40977,999,11069,.24569673E-3,.2819E-4,0
HORYU-4,2016-012D,2026-05-21T02:00:28.461600,15.80334441,.00041537,30.9882,275.5299,92.5419,267.5714,0,U,41340,999,56650,.73900187E-3,.148317E-2,0
RAVAN,2016-067B,2026-05-21T05:52:20.124768,15.51947961,.00071251,97.9920,27.7600,98.1338,262.0721,0,U,41849,999,52351,.55712716E-3,.33473E-3,0
CELTEE 1,2016-067C,2026-05-21T03:25:00.869952,15.19380960,.00013902,98.0705,5.8660,55.8490,304.2874,0,U,41850,999,52177,.1602648E-3,.3312E-4,0
OPTICUBE 04,2016-067D,2026-05-21T07:12:29.957472,15.09529829,.00150018,98.0725,352.1800,204.0271,156.0259,0,U,41851,999,52111,.80504977E-4,.1222E-4,0
AEROCUBE 8D,2016-067E,2026-05-21T04:09:42.497856,15.23971349,.00025148,98.0712,9.2935,204.0257,156.0861,0,U,41852,999,52195,.21968949E-3,.5235E-4,0
AEROCUBE 8C,2016-067F,2026-05-21T04:51:55.150560,15.24211253,.00061888,98.0585,6.5880,141.8657,218.3018,0,U,41853,999,52195,.20692415E-3,.4964E-4,0
CORVUS BC2,2017-042X,2026-05-21T00:33:26.529408,15.06095262,.0012631,97.4041,303.4376,198.3091,161.7684,0,U,42846,999,48297,.10961638E-3,.1545E-4,0
CORVUS BC1,2017-042Y,2026-05-21T00:30:07.686720,15.06265921,.00120939,97.4072,304.2315,174.4285,185.7080,0,U,42847,999,48300,.12172776E-3,.173E-4,0
MAKERSAT 0,2017-073D,2026-05-21T03:08:32.718336,15.30862288,.01101185,97.4655,23.4574,10.4350,349.9139,0,U,43016,999,46232,.4830282E-3,.1733E-3,0
